ONEWEB-0397             
1 50477U 21132J   24172.89177601  .00000076  00000+0  15885-3 0  9999
2 50477  87.9148 120.0397 0002278  88.5853 271.5540 13.18687826125899
ONEWEB-0398             
1 50478U 21132K   24172.94216922 -.00000270  00000+0 -79713-3 0  9994
2 50478  87.8957 165.5918 0001767  76.9383 283.1942 13.11417733120421
ONEWEB-0399             
1 50479U 21132L   24172.92858899 -.00000482  00000+0 -13972-2 0  9997
2 50479  87.8957 165.6116 0002206  97.4868 262.6511 13.11417156120410
ONEWEB-0401             
1 50481U 21132N   24172.91391460  .00000075  00000+0  15714-3 0  9998
2 50481  87.9141 120.0357 0002368  86.4456 273.6947 13.18686968125899
ONEWEB-0402             
1 50482U 21132P   24172.87913912  .00000077  00000+0  16189-3 0  9995
2 50482  87.9142 120.0397 0002701  82.2788 277.8651 13.18686881125913
